ORBCOMM FM37 [-]        
1 33064U 08031E   23299.25520588  .00001985  00000+0  31984-3 0  9998
2 33064  48.4407 305.0760 0006430 326.0126 126.5069 14.75288634825348
ORBCOMM FM40 [-]        
1 33065U 08031F   23299.42302451  .00002567  00000+0  39497-3 0  9999
2 33065  48.4430 295.3756 0007739 335.1739 178.4363 14.76368546825384
VESSELSAT 1 [-]         
1 37840U 11058C   23299.84813399  .00000413  00000+0  81061-4 0  9994
2 37840  19.9609 119.6328 0013790  75.4620 284.7313 14.11075369621545
ORBCOMM FM109 [+]       
1 40086U 14040A   23299.80825404  .00000920  00000+0  24463-3 0  9995
2 40086  47.0047 322.0749 0000978  59.2738 300.8243 14.56022495493652
ORBCOMM FM107 [+]       
1 40087U 14040B   23299.77385511  .00001015  00000+0  26599-3 0  9990
2 40087  47.0066 323.1718 0001332 352.5004   7.5860 14.56024725493724
ORBCOMM FM106 [-]       
1 40088U 14040C   23299.09998276  .00001281  00000+0  26343-3 0  9996
2 40088  47.0607 193.8478 0017992 166.2320 193.9064 14.66149901495320
ORBCOMM FM111 [-]       
1 40089U 14040D   23299.90650569  .00002792  00000+0  38662-3 0  9992
2 40089  47.0034 113.7098 0034122 216.2778 143.5802 14.80217073501276
ORBCOMM FM104 [-]       
1 40090U 14040E   23299.82246698  .00000821  00000+0  22913-3 0  9992
2 40090  47.0070 349.7029 0017393 346.3492  13.6920 14.54574191493302
